#aV2012  1 29  0  0   .00000000      96 DD+AD WGS84 FIT  NGA
## 1673       .00000000   900.00000000 55955  .0000000000000
+   31     1  2  3  4  5  6  7  8  9 10 11 12 13 14 15 16 17
+         18 19 20 21 22 23 25 26 27 28 29 30 31 32  0  0  0
+          0  0  0  0  0  0  0  0  0  0  0  0  0  0  0  0  0
+          0  0  0  0  0  0  0  0  0  0  0  0  0  0  0  0  0
+          0  0  0  0  0  0  0  0  0  0  0  0  0  0  0  0  0
++         0  0  0  0  0  0  0  0  0  0  0  0  0  0  0  0  0
++         0  0  0  0  0  0  0  0  0  0  0  0  0  0  0  0  0
++         0  0  0  0  0  0  0  0  0  0  0  0  0  0  0  0  0
++         0  0  0  0  0  0  0  0  0  0  0  0  0  0  0  0  0
++         0  0  0  0  0  0  0  0  0  0  0  0  0  0  0  0  0
%c cc cc ccc ccc cccc cccc cccc cccc ccccc ccccc ccccc ccccc
%c cc cc ccc ccc cccc cccc cccc cccc ccccc ccccc ccccc ccccc
%f  0.0000000  0.000000000  0.00000000000  0.000000000000000
%f  0.0000000  0.000000000  0.00000000000  0.000000000000000
%i    0    0    0    0      0      0      0      0         0
%i    0    0    0    0      0      0      0      0         0
/*      NGA, ST. LOUIS,MO.                                  
/*   EPHEMERIS COMPUTED FROM  3 DAYS OF DATA                
/* CCCCCCCCCCCCCCCCCCCCCCCCCCCCCCCCCCCCCCCCCCCCCCCCCCCCCCCCC
/* CCCCCCCCCCCCCCCCCCCCCCCCCCCCCCCCCCCCCCCCCCCCCCCCCCCCCCCCC
*  2012  1 29 16 15   .00000000                                                 
P  1   4382.665681  14615.697278 -21756.195805    196.175885                    
V  1 -26855.505357   6319.348724  -1151.285375       .114008                    
P  2  19021.245487 -13719.237494  12059.555040    376.776961                    
V  2  15742.360211   -482.946008 -26079.348863       .016143                    
P  3 -10489.562964  22422.345824   8774.242559      2.616132                    
V  3  -1686.008200 -12374.018035  28433.827414       .049510                    
P  4  25835.027502  -6743.106111   1222.390345     78.023262                    
V  4   2502.139703   2784.682658 -30973.951616       .114673                    
P  5   6805.749120 -14691.973175  21007.657942   -276.463463                    
V  5  18768.443414  19133.308380   7413.895606      -.045504                    
P  6 -14036.150104  18806.377476  12306.722809     27.583309                    
V  6    817.924090 -15855.110905  25706.594168       .022404                    
P  7  18805.843756   7900.549754  17162.890618     53.326325                    
V  7 -20878.415823   5769.416066  20011.195123       .026766                    
P  8  25761.577003   1572.891648   7497.847457       .501307                    
V  8  -9047.710950   2251.291199  30315.484668       .001211                    
P  9    151.650623 -15262.018747 -22288.481860    135.049156                    
V  9  26228.546415  -6048.788450   4403.986544       .025386                    
P 10  19704.915748   3313.675166  17442.139510    -27.300190                    
V 10  13614.936383  18033.140618 -18154.340322      -.013025                    
P 11  -1161.976522  18444.525798 -19358.222035   -227.459647                    
V 11 -22292.822264   9656.108172  11079.002387      -.035598                    
P 12  -8930.834787 -22144.505813 -11814.502873     49.411385                    
V 12  11212.575880  10006.893472 -27034.403776       .022013                    
P 13   8445.792164  14674.046520  20302.029592    227.981895                    
V 13 -10706.317962  23759.025309 -12710.058242      -.021341                    
P 14 -16446.566399   5850.874456 -19800.291043    191.905306                    
V 14   8123.147902 -24212.974984 -13914.355700       .014479                    
P 15   2695.545493 -25559.038560  -6263.191755    -93.810141                    
V 15   5379.871216  -6785.138283  30215.322804       .006025                    
P 16  -7658.989997  13393.367285  21592.746026   -221.055140                    
V 16 -18182.826173 -20472.599505   6550.195306      -.017057                    
P 17  16156.128922  -2513.913680 -20718.481320    151.907852                    
V 17  -7920.930021  25547.756333  -9441.135103      -.022125                    
P 18 -20150.187760 -16756.824634  -5032.344462    179.085975                    
V 18  -2002.903510  -7319.891820  29961.757361       .018216                    
P 19  -7097.063523  25039.473448  -4208.778960   -230.531708                    
V 19  -4906.745580   3778.621370  31378.661401      -.038625                    
P 20  11509.306834  21899.513026  -9926.302151     60.930789                    
V 20 -11076.595537  -6460.092891 -27473.088306       .006927                    
P 21 -22347.679185  -5832.376362  14073.828909   -200.880136                    
V 21  16078.517441  -5865.044474  23287.673410      -.025347                    
P 22 -20232.401702  -3925.268738 -16641.692556    142.965992                    
V 22 -12587.726221 -17614.045955  19143.932732      -.001384                    
P 23   2769.588106  22399.121331  13734.205157    237.640340                    
V 23  -7722.121644  15926.436512 -24818.291741      -.033571                    
P 25 -17512.717135 -19957.497360  -1366.552553     31.348611                    
V 25   3047.459863   -530.714489 -31798.966902       .002144                    
P 26  12511.233540 -22579.536443   4679.494016   -317.565724                    
V 26   -309.158886   7179.771918  31800.071067      -.146759                    
P 27   8202.867887 -15466.183893 -19191.066557    351.304793                    
V 27  25326.920463  -5349.802186  15089.902200       .039055                    
P 28  20065.008033   8239.942001 -14937.491038    107.495516                    
V 28  11449.424551  16272.492196  23271.436509       .037037                    
P 29  -8437.508387 -16250.400307  19319.881113    279.740153                    
V 29   9409.779608 -22516.060324 -14841.361452       .035963                    
P 30 -15191.261097   5900.050080  20620.984955    -26.399035                    
V 30 -19627.415053 -18568.530574  -8984.730519      -.132589                    
P 31 -25330.161640   7714.519624   3536.882947    201.656379                    
V 31  -4508.390812  -1044.028910 -31622.225046       .046823                    
P 32   3214.877163  21705.315255 -15060.989182   -399.846575                    
V 32 -13398.871476 -14118.656083 -22403.824743      -.055383                    
EOF
